{"fetched_at":"2026-07-06T18:35:17.756Z","source":"https://celestrak.org/NORAD/elements/gp.php?GROUP=spire&FORMAT=JSON","constellation":"spire","records":[{"OBJECT_NAME":"LEMUR-1","OBJECT_ID":"2014-033AL","EPOCH":"2026-07-05T08:22:07.900320","CLASSIFICATION_TYPE":"U","MEAN_MOTION":14.85316858,"ECCENTRICITY":0.0048598,"INCLINATION":97.7902,"RA_OF_ASC_NODE":335.7525,"ARG_OF_PERICENTER":20.2635,"MEAN_ANOMALY":340.0495,"EPHEMERIS_TYPE":0,"NORAD_CAT_ID":40044,"ELEMENT_SET_NO":999,"REV_AT_EPOCH":64816,"BSTAR":0.00032917,"MEAN_MOTION_DOT":0.00002834,"MEAN_MOTION_DDOT":0},{"OBJECT_NAME":"LEMUR-2-GREENBERG","OBJECT_ID":"2017-042N","EPOCH":"2026-07-06T00:48:20.965536","CLASSIFICATION_TYPE":"U","MEAN_MOTION":15.31950054,"ECCENTRICITY":0.00071999,"INCLINATION":97.3832,"RA_OF_ASC_NODE":7.5791,"ARG_OF_PERICENTER":298.7832,"MEAN_ANOMALY":61.2686,"EPHEMERIS_TYPE":0,"NORAD_CAT_ID":42837,"ELEMENT_SET_NO":999,"REV_AT_EPOCH":49127,"BSTAR":0.00060348306,"MEAN_MOTION_DOT":0.00018577,"MEAN_MOTION_DDOT":0},{"OBJECT_NAME":"LEMUR-2-ANDIS","OBJECT_ID":"2017-042P","EPOCH":"2026-07-06T00:26:53.888928","CLASSIFICATION_TYPE":"U","MEAN_MOTION":15.35656505,"ECCENTRICITY":0.00071354,"INCLINATION":97.3686,"RA_OF_ASC_NODE":7.8149,"ARG_OF_PERICENTER":296.9614,"MEAN_ANOMALY":63.09,"EPHEMERIS_TYPE":0,"NORAD_CAT_ID":42838,"ELEMENT_SET_NO":999,"REV_AT_EPOCH":49134,"BSTAR":0.00067732619,"MEAN_MOTION_DOT":0.00023464,"MEAN_MOTION_DDOT":0},{"OBJECT_NAME":"LEMUR-2-MONSON","OBJECT_ID":"2017-042Q","EPOCH":"2026-07-05T22:51:38.352672","CLASSIFICATION_TYPE":"U","MEAN_MOTION":15.28584381,"ECCENTRICITY":0.00051367,"INCLINATION":97.4093,"RA_OF_ASC_NODE":7.4417,"ARG_OF_PERICENTER":288.1128,"MEAN_ANOMALY":71.9552,"EPHEMERIS_TYPE":0,"NORAD_CAT_ID":42839,"ELEMENT_SET_NO":999,"REV_AT_EPOCH":49103,"BSTAR":0.0005741273,"MEAN_MOTION_DOT":0.00015912,"MEAN_MOTION_DDOT":0},{"OBJECT_NAME":"LEMUR-2-FURIAUS","OBJECT_ID":"2017-042R","EPOCH":"2026-07-06T00:58:08.676480","CLASSIFICATION_TYPE":"U","MEAN_MOTION":15.30917624,"ECCENTRICITY":0.00067147,"INCLINATION":97.378,"RA_OF_ASC_NODE":5.4983,"ARG_OF_PERICENTER":5.4345,"MEAN_ANOMALY":354.6968,"EPHEMERIS_TYPE":0,"NORAD_CAT_ID":42840,"ELEMENT_SET_NO":999,"REV_AT_EPOCH":49109,"BSTAR":0.00068534226,"MEAN_MOTION_DOT":0.00020443,"MEAN_MOTION_DDOT":0},{"OBJECT_NAME":"LEMUR-2-PETERG","OBJECT_ID":"2017-042S","EPOCH":"2026-07-05T19:38:52.881504","CLASSIFICATION_TYPE":"U","MEAN_MOTION":15.34763406,"ECCENTRICITY":0.00028436,"INCLINATION":97.3999,"RA_OF_ASC_NODE":11.8886,"ARG_OF_PERICENTER":266.1476,"MEAN_ANOMALY":93.9442,"EPHEMERIS_TYPE":0,"NORAD_CAT_ID":42841,"ELEMENT_SET_NO":999,"REV_AT_EPOCH":49129,"BSTAR":0.00076528796,"MEAN_MOTION_DOT":0.00025768,"MEAN_MOTION_DDOT":0},{"OBJECT_NAME":"LEMUR-2-DEMBITZ","OBJECT_ID":"2017-042T","EPOCH":"2026-07-05T11:19:19.318368","CLASSIFICATION_TYPE":"U","MEAN_MOTION":15.30893362,"ECCENTRICITY":0.0005327,"INCLINATION":97.3831,"RA_OF_ASC_NODE":7.9707,"ARG_OF_PERICENTER":318.3139,"MEAN_ANOMALY":41.7696,"EPHEMERIS_TYPE":0,"NORAD_CAT_ID":42842,"ELEMENT_SET_NO":999,"REV_AT_EPOCH":49114,"BSTAR":0.00087057,"MEAN_MOTION_DOT":0.00025981,"MEAN_MOTION_DDOT":0},{"OBJECT_NAME":"LEMUR-2-ZACHARY","OBJECT_ID":"2017-042W","EPOCH":"2026-07-05T20:01:45.808608","CLASSIFICATION_TYPE":"U","MEAN_MOTION":15.52038136,"ECCENTRICITY":0.00023624,"INCLINATION":97.3591,"RA_OF_ASC_NODE":18.8883,"ARG_OF_PERICENTER":297.2879,"MEAN_ANOMALY":62.8133,"EPHEMERIS_TYPE":0,"NORAD_CAT_ID":42845,"ELEMENT_SET_NO":999,"REV_AT_EPOCH":49209,"BSTAR":0.000947594,"MEAN_MOTION_DOT":0.00057317,"MEAN_MOTION_DDOT":0},{"OBJECT_NAME":"LEMUR-2-AMANDA-SVANTE","OBJECT_ID":"2021-034B","EPOCH":"2026-07-06T04:46:01.886016","CLASSIFICATION_TYPE":"U","MEAN_MOTION":15.3555216,"ECCENTRICITY":0.00040367,"INCLINATION":97.5745,"RA_OF_ASC_NODE":266,"ARG_OF_PERICENTER":164.2126,"MEAN_ANOMALY":195.9244,"EPHEMERIS_TYPE":0,"NORAD_CAT_ID":48269,"ELEMENT_SET_NO":999,"REV_AT_EPOCH":28397,"BSTAR":0.001020665,"MEAN_MOTION_DOT":0.00035315,"MEAN_MOTION_DDOT":0},{"OBJECT_NAME":"LEMUR-2-SPECIAL-K","OBJECT_ID":"2021-034F","EPOCH":"2026-07-06T05:41:36.307392","CLASSIFICATION_TYPE":"U","MEAN_MOTION":15.71456484,"ECCENTRICITY":0.0005773,"INCLINATION":97.5636,"RA_OF_ASC_NODE":275.5626,"ARG_OF_PERICENTER":220.9079,"MEAN_ANOMALY":139.175,"EPHEMERIS_TYPE":0,"NORAD_CAT_ID":48273,"ELEMENT_SET_NO":999,"REV_AT_EPOCH":28467,"BSTAR":0.0018452951,"MEAN_MOTION_DOT":0.00241712,"MEAN_MOTION_DDOT":0},{"OBJECT_NAME":"LEMUR-2-EMBRIONOVIS","OBJECT_ID":"2023-084AQ","EPOCH":"2026-07-05T22:36:39.250944","CLASSIFICATION_TYPE":"U","MEAN_MOTION":15.38055358,"ECCENTRICITY":0.0007698,"INCLINATION":97.6318,"RA_OF_ASC_NODE":331.8697,"ARG_OF_PERICENTER":242.7381,"MEAN_ANOMALY":117.308,"EPHEMERIS_TYPE":0,"NORAD_CAT_ID":56970,"ELEMENT_SET_NO":999,"REV_AT_EPOCH":17056,"BSTAR":0.0004189854,"MEAN_MOTION_DOT":0.00015631,"MEAN_MOTION_DDOT":0},{"OBJECT_NAME":"LEMUR-2-DEVERILL-M-T","OBJECT_ID":"2023-100F","EPOCH":"2026-07-06T01:47:53.897568","CLASSIFICATION_TYPE":"U","MEAN_MOTION":15.40758903,"ECCENTRICITY":0.00049011,"INCLINATION":99.4455,"RA_OF_ASC_NODE":231.3007,"ARG_OF_PERICENTER":336.6467,"MEAN_ANOMALY":23.4549,"EPHEMERIS_TYPE":0,"NORAD_CAT_ID":57391,"ELEMENT_SET_NO":999,"REV_AT_EPOCH":16415,"BSTAR":0.0007154157,"MEAN_MOTION_DOT":0.00029242,"MEAN_MOTION_DDOT":0},{"OBJECT_NAME":"LEMUR-2-BASS","OBJECT_ID":"2023-174D","EPOCH":"2026-07-06T04:57:34.140096","CLASSIFICATION_TYPE":"U","MEAN_MOTION":15.43775195,"ECCENTRICITY":0.00079598,"INCLINATION":97.384,"RA_OF_ASC_NODE":272.1926,"ARG_OF_PERICENTER":104.5518,"MEAN_ANOMALY":255.6613,"EPHEMERIS_TYPE":0,"NORAD_CAT_ID":58259,"ELEMENT_SET_NO":999,"REV_AT_EPOCH":14829,"BSTAR":0.00043196205,"MEAN_MOTION_DOT":0.00019495,"MEAN_MOTION_DDOT":0},{"OBJECT_NAME":"LEMUR-2-JK0903EM1407","OBJECT_ID":"2023-174CJ","EPOCH":"2026-07-06T03:53:20.866848","CLASSIFICATION_TYPE":"U","MEAN_MOTION":15.52717559,"ECCENTRICITY":0.00043867,"INCLINATION":97.3917,"RA_OF_ASC_NODE":278.18,"ARG_OF_PERICENTER":61.7347,"MEAN_ANOMALY":298.4348,"EPHEMERIS_TYPE":0,"NORAD_CAT_ID":58336,"ELEMENT_SET_NO":999,"REV_AT_EPOCH":14867,"BSTAR":0.00047453854,"MEAN_MOTION_DOT":0.00029266,"MEAN_MOTION_DDOT":0},{"OBJECT_NAME":"LEMUR-2-MJR092620","OBJECT_ID":"2023-174CN","EPOCH":"2026-07-06T04:44:35.813472","CLASSIFICATION_TYPE":"U","MEAN_MOTION":15.45621998,"ECCENTRICITY":0.0006146,"INCLINATION":97.397,"RA_OF_ASC_NODE":277.5857,"ARG_OF_PERICENTER":59.8947,"MEAN_ANOMALY":300.291,"EPHEMERIS_TYPE":0,"NORAD_CAT_ID":58340,"ELEMENT_SET_NO":999,"REV_AT_EPOCH":14858,"BSTAR":0.00042636835,"MEAN_MOTION_DOT":0.00020481,"MEAN_MOTION_DDOT":0},{"OBJECT_NAME":"LEMUR-2-NIMBUS2000","OBJECT_ID":"2024-022A","EPOCH":"2026-07-06T02:42:05.422464","CLASSIFICATION_TYPE":"U","MEAN_MOTION":15.40835853,"ECCENTRICITY":0.00096125,"INCLINATION":97.4093,"RA_OF_ASC_NODE":37.3587,"ARG_OF_PERICENTER":58.1498,"MEAN_ANOMALY":302.0683,"EPHEMERIS_TYPE":0,"NORAD_CAT_ID":58899,"ELEMENT_SET_NO":999,"REV_AT_EPOCH":13518,"BSTAR":0.00057195117,"MEAN_MOTION_DOT":0.00023449,"MEAN_MOTION_DDOT":0}]}
